H1 CPF 01  gfz 2021 04 19 12  6091 terrasarx 
H2 0702601  6201 31698    2021 04 19 12 59 42 2021 04 24 00 00 42   120 1 1  0 0 0
H9
10 0 59326  19422.000000  0    2970165.002   1296748.846   6068303.767
10 0 59326  19542.000000  0    3764326.241   1331932.196   5603300.759
10 0 59326  19662.000000  0    4493046.109   1330528.074   5039747.084
10 0 59326  19782.000000  0    5142938.212   1293814.606   4387519.898
10 0 59326  19902.000000  0    5702016.988   1223909.657   3658068.466
10 0 59326  20022.000000  0    6159928.881   1123709.232   2864214.210
10 0 59326  20142.000000  0    6508152.741    996806.906   2019925.016
10 0 59326  20262.000000  0    6740168.132    847397.912   1140067.039
10 0 59326  20382.000000  0    6851584.458    680169.138    240136.398
10 0 59326  20502.000000  0    6840228.528    500177.838   -664021.326
10 0 59326  20622.000000  0    6706186.818    312722.191  -1556499.963
10 0 59326  20742.000000  0    6451801.144    123207.280  -2421620.837
10 0 59326  20862.000000  0    6081620.075    -62990.628  -3244214.266
10 0 59326  20982.000000  0    5602307.304   -240657.310  -4009889.490
10 0 59326  21102.000000  0    5022508.771   -404868.094  -4705287.076
10 0 59326  21222.000000  0    4352683.152   -551106.005  -5318307.497
10 0 59326  21342.000000  0    3604902.752   -675368.724  -5838313.967
10 0 59326  21462.000000  0    2792627.591   -774262.977  -6256308.073
10 0 59326  21582.000000  0    1930457.116   -845082.992  -6565074.233
10 0 59326  21702.000000  0    1033866.832   -885872.220  -6759292.416
10 0 59326  21822.000000  0     118933.169   -895468.679  -6835621.043
10 0 59326  21942.000000  0    -797950.121   -873531.271  -6792747.706
10 0 59326  22062.000000  0   -1700358.444   -820548.366  -6631409.347
10 0 59326  22182.000000  0   -2572124.413   -737827.584  -6354380.822
10 0 59326  22302.000000  0   -3397620.631   -627467.522  -5966431.007
10 0 59326  22422.000000  0   -4162035.209   -492311.766  -5474250.833
10 0 59326  22542.000000  0   -4851638.700   -335885.380  -4886348.949
10 0 59326  22662.000000  0   -5454034.009   -162315.253  -4212915.857
10 0 59326  22782.000000  0   -5958387.622     23764.385  -3465658.960
10 0 59326  22902.000000  0   -6355635.914    217320.518  -2657606.884
10 0 59326  23022.000000  0   -6638660.969    413041.064  -1802887.583
10 0 59326  23142.000000  0   -6802431.611    605463.968   -916482.486
10 0 59326  23262.000000  0   -6844105.462    789111.125    -13959.647
10 0 59326  23382.000000  0   -6763085.052    958624.887    888806.575
10 0 59326  23502.000000  0   -6561030.897   1108903.361   1775921.523
10 0 59326  23622.000000  0   -6241829.889   1235231.074   2631759.324
10 0 59326  23742.000000  0   -5811517.672   1333401.247   3441247.416
10 0 59326  23862.000000  0   -5278157.253   1399826.488   4190139.120
10 0 59326  23982.000000  0   -4651678.401   1431635.354   4865267.786
10 0 59326  24102.000000  0   -3943682.991   1426752.341   5454778.436
10 0 59326  24222.000000  0   -3167221.480   1383959.827   5948333.674
10 0 59326  24342.000000  0   -2336544.717   1302940.692   6337291.839
10 0 59326  24462.000000  0   -1466834.856   1184301.186   6614853.282
10 0 59326  24582.000000  0    -573923.102   1029572.681   6776171.754
10 0 59326  24702.000000  0     325999.155    841193.287   6818432.804
10 0 59326  24822.000000  0    1216672.966    622469.201   6740899.492
10 0 59326  24942.000000  0    2082064.174    377516.989   6544924.418
10 0 59326  25062.000000  0    2906650.909    111187.114   6233928.295
10 0 59326  25182.000000  0    3675703.173   -171030.381   5813345.054
10 0 59326  25302.000000  0    4375548.894   -463116.510   5290531.915
10 0 59326  25422.000000  0    4993821.829   -758648.188   4674646.920
10 0 59326  25542.000000  0    5519687.573  -1050935.190   3976494.082
10 0 59326  25662.000000  0    5944042.496  -1333166.860   3208337.940
10 0 59326  25782.000000  0    6259681.408  -1598564.943   2383688.865
10 0 59326  25902.000000  0    6461428.882  -1840538.898   1517063.549
10 0 59326  26022.000000  0    6546231.212  -2052840.094    623724.954
10 0 59326  26142.000000  0    6513206.230  -2229711.934   -280593.890
10 0 59326  26262.000000  0    6363648.631  -2366029.980  -1179976.280
10 0 59326  26382.000000  0    6100991.336  -2457429.901  -2058610.977
10 0 59326  26502.000000  0    5730723.306  -2500419.507  -2901077.968
10 0 59326  26622.000000  0    5260267.200  -2492471.533  -3692623.682
10 0 59326  26742.000000  0    4698821.518  -2432096.196  -4419420.449
10 0 59326  26862.000000  0    4057170.989  -2318892.014  -5068806.600
10 0 59326  26982.000000  0    3347468.730  -2153573.546  -5629501.484
10 0 59326  27102.000000  0    2582998.279  -1937975.826  -6091791.166
10 0 59326  27222.000000  0    1777922.182  -1675036.424  -6447686.369
10 0 59326  27342.000000  0     947017.841  -1368754.899  -6691050.781
10 0 59326  27462.000000  0     105407.749  -1024131.194  -6817695.724
10 0 59326  27582.000000  0    -731711.014   -647084.533  -6825444.059
10 0 59326  27702.000000  0   -1549334.643   -244353.787  -6714163.377
10 0 59326  27822.000000  0   -2332915.706    176620.341  -6485767.637
10 0 59326  27942.000000  0   -3068615.800    607828.814  -6144186.939
10 0 59326  28062.000000  0   -3743545.400   1040842.015  -5695307.841
10 0 59326  28182.000000  0   -4345989.827   1466969.760  -5146882.701
10 0 59326  28302.000000  0   -4865616.093   1877431.638  -4508407.762
10 0 59326  28422.000000  0   -5293657.279   2263535.890  -3790969.543
10 0 59326  28542.000000  0   -5623068.888   2616860.618  -3007061.193
10 0 59326  28662.000000  0   -5848655.481   2929435.012  -2170371.997
10 0 59326  28782.000000  0   -5967163.681   3193916.586  -1295551.296
10 0 59326  28902.000000  0   -5977337.519   3403760.116   -397950.690
10 0 59326  29022.000000  0   -5879934.536   3553373.237    506650.136
10 0 59326  29142.000000  0   -5677701.211   3638253.987   1402329.507
10 0 59326  29262.000000  0   -5375306.273   3655107.008   2273313.117
10 0 59326  29382.000000  0   -4979235.647   3601935.323   3104260.228
10 0 59326  29502.000000  0   -4497652.415   3478105.276   3880541.423
10 0 59326  29622.000000  0   -3940223.395   3284382.835   4588501.758
10 0 59326  29742.000000  0   -3317919.113   3022940.510   5215702.397
10 0 59326  29862.000000  0   -2642791.504   2697336.747   5751139.162
10 0 59326  29982.000000  0   -1927733.593   2312466.379   6185432.242
10 0 59326  30102.000000  0   -1186227.862   1874484.047   6510985.327
10 0 59326  30222.000000  0    -432088.643   1390702.813   6722110.607
10 0 59326  30342.000000  0     320794.858    869470.012   6815122.192
10 0 59326  30462.000000  0    1058713.914    320022.467   6788396.353
10 0 59326  30582.000000  0    1768388.655   -247676.579   6642397.894
10 0 59326  30702.000000  0    2437206.068   -823117.382   6379673.371
10 0 59326  30822.000000  0    3053444.230  -1395437.520   6004810.140
10 0 59326  30942.000000  0    3606480.385  -1953626.289   5524361.931
10 0 59326  31062.000000  0    4086978.001  -2486736.914   4946739.514
10 0 59326  31182.000000  0    4487049.200  -2984101.995   4282069.526
10 0 59326  31302.000000  0    4800390.648  -3435549.851   3542022.240
10 0 59326  31422.000000  0    5022389.773  -3831615.724   2739608.854
10 0 59326  31542.000000  0    5150197.548  -4163742.355   1888951.055
10 0 59326  31662.000000  0    5182764.816  -4424465.706   1005028.694
10 0 59326  31782.000000  0    5120842.970  -4607581.318    103410.056
10 0 59326  31902.000000  0    4966948.153  -4708286.988   -800030.242
10 0 59326  32022.000000  0    4725289.471  -4723297.061  -1689399.919
10 0 59326  32142.000000  0    4401662.886  -4650925.818  -2549077.051
10 0 59326  32262.000000  0    4003314.221  -4491137.993  -3363990.815
10 0 59326  32382.000000  0    3538775.027  -4245565.931  -4119889.080
10 0 59326  32502.000000  0    3017676.297  -3917492.751  -4803587.648
10 0 59326  32622.000000  0    2450543.861  -3511803.040  -5403195.942
10 0 59326  32742.000000  0    1848582.175  -3034903.401  -5908314.735
10 0 59326  32862.000000  0    1223452.450  -2494616.376  -6310206.080
10 0 59326  32982.000000  0     587046.850  -1900048.350  -6601934.947
10 0 59326  33102.000000  0     -48736.060  -1261432.903  -6778478.264
10 0 59326  33222.000000  0    -672209.479   -589954.674  -6836801.268
10 0 59326  33342.000000  0   -1272107.500    102443.319  -6775903.331
10 0 59326  33462.000000  0   -1837784.125    803266.919  -6596832.682
10 0 59326  33582.000000  0   -2359397.730   1499690.467  -6302670.123
10 0 59326  33702.000000  0   -2828078.810   2178785.674  -5898481.828
10 0 59326  33822.000000  0   -3236080.250   2827756.988  -5391242.088
10 0 59326  33942.000000  0   -3576907.570   3434181.191  -4789724.919
10 0 59326  34062.000000  0   -3845427.181   3986246.191  -4104363.269
10 0 59326  34182.000000  0   -4037948.172   4472983.954  -3347076.955
10 0 59326  34302.000000  0   -4152275.687   4884492.754  -2531073.211
10 0 59326  34422.000000  0   -4187736.937   5212144.192  -1670621.595
10 0 59326  34542.000000  0   -4145177.764   5448770.225   -780806.040
10 0 59326  34662.000000  0   -4026927.956   5588825.282    122743.523
10 0 59326  34782.000000  0   -3836735.614   5628515.679   1024131.997
10 0 59326  34902.000000  0   -3579672.985   5565896.458   1907487.320
10 0 59326  35022.000000  0   -3262014.750   5400930.282   2757250.846
10 0 59326  35142.000000  0   -2891090.616   5135505.583   3558460.012
10 0 59326  35262.000000  0   -2475119.194   4773416.525   4297016.795
10 0 59326  35382.000000  0   -2023026.601   4320305.451   4959939.054
10 0 59326  35502.000000  0   -1544254.695   3783568.609   5535589.427
10 0 59326  35622.000000  0   -1048562.467   3172227.565   6013877.436
10 0 59326  35742.000000  0    -545826.403   2496769.918   6386431.076
10 0 59326  35862.000000  0     -45844.289   1768963.731   6646736.532
99
